GLOBALSTAR M063         
1 26081U 00008A   24343.97221574 -.00000005  00000+0  11358-2 0  9993
2 26081  51.9952 252.5291 0004582 318.4977 124.4067 11.86165924135000
GLOBALSTAR M062         
1 26082U 00008B   24343.84786093 -.00000062  00000+0  26076-3 0  9999
2 26082  51.9857 295.5084 0007497  63.9407 313.7841 12.43453115472946
GLOBALSTAR M060         
1 26083U 00008C   24343.87855065  .00000016  00000+0  10598-2 0  9998
2 26083  52.0006 228.5032 0004401  90.0018  17.7819 12.17650315129188
GLOBALSTAR M064         
1 26084U 00008D   24343.74172522 -.00000067  00000+0  22637-3 0  9990
2 26084  52.0053 354.2082 0001620  53.4024 306.6958 11.88526149144458
GLOBALSTAR M065         
1 31571U 07020A   24343.84711299  .00000057  00000+0  89686-3 0  9994
2 31571  51.9896  85.5938 0009735 239.2662 274.2359 12.61982432809376
GLOBALSTAR M069         
1 31573U 07020C   24343.90111398 -.00000055  00000+0  29290-3 0  9991
2 31573  51.9968  44.5183 0001021 125.3934  46.0303 12.53306440810457
GLOBALSTAR M072         
1 31574U 07020D   24343.89146544 -.00000091  00000+0  41605-4 0  9996
2 31574  52.0059 142.2431 0001275  97.7694  68.2401 12.34773385808704
GLOBALSTAR M071         
1 31576U 07020F   24343.68907793 -.00000056  00000+0  27827-3 0  9996
2 31576  52.0086  47.1490 0000530  79.8563  62.1115 12.56567423471678
